{
"type": "FeatureCollection",
"name": "hospital-point",
"crs": { "type": "name", "properties": { "name": "urn:ogc:def:crs:OGC:1.3:CRS84" } },
"features": [
{ "type": "Feature", "properties": { "hospital_pk": "070018", "hospital_name": "Greenwich Hospital Association -", "address": "5 Perryridge Rd", "city": "Greenwich", "zip": "06830", "lat": 41.034847, "long": -73.62938 }, "geometry": { "type": "Point", "coordinates": [ -73.62938, 41.034847 ] } },
{ "type": "Feature", "properties": { "hospital_pk": "070034", "hospital_name": "Norwalk Hospital", "address": "24 Stevens Street", "city": "Norwalk", "zip": "06856", "lat": 41.110622, "long": -73.42047 }, "geometry": { "type": "Point", "coordinates": [ -73.42047, 41.110622 ] } },
{ "type": "Feature", "properties": { "hospital_pk": "070028", "hospital_name": "St Vincent's Medical Center", "address": "2800 Main St", "city": "Bridgeport", "zip": "06606", "lat": 41.20014, "long": -73.20263 }, "geometry": { "type": "Point", "coordinates": [ -73.20263, 41.20014 ] } },
{ "type": "Feature", "properties": { "hospital_pk": "070033", "hospital_name": "Danbury Hospital", "address": "24 Hospital Ave", "city": "Danbury", "zip": "06810", "lat": 41.406002, "long": -73.44672 }, "geometry": { "type": "Point", "coordinates": [ -73.44672, 41.406002 ] } },
{ "type": "Feature", "properties": { "hospital_pk": "070006", "hospital_name": "Stamford Hospital", "address": "One Hospital Plaza", "city": "Stamford", "zip": "06904", "lat": 41.0547061, "long": -73.538058883542192 }, "geometry": { "type": "Point", "coordinates": [ -73.538058883542192, 41.0547061 ] } },
{ "type": "Feature", "properties": { "hospital_pk": "070010", "hospital_name": "Bridgeport Hospital", "address": "267 Grant Street", "city": "Bridgeport", "zip": "06610", "lat": 41.18886, "long": -73.16652 }, "geometry": { "type": "Point", "coordinates": [ -73.16652, 41.18886 ] } },
{ "type": "Feature", "properties": { "hospital_pk": "070011", "hospital_name": "Charlotte Hungerford Hospital", "address": "540 Litchfield St", "city": "Torrington", "zip": "06790", "lat": 41.790844, "long": -73.13316 }, "geometry": { "type": "Point", "coordinates": [ -73.13316, 41.790844 ] } },
{ "type": "Feature", "properties": { "hospital_pk": "070004", "hospital_name": "Sharon Hospital", "address": "50 Hospital Hill Road", "city": "Sharon", "zip": "06069", "lat": 41.87962, "long": -73.48102 }, "geometry": { "type": "Point", "coordinates": [ -73.48102, 41.87962 ] } },
{ "type": "Feature", "properties": { "hospital_pk": "070022", "hospital_name": "Yale-New Haven Hospital", "address": "20 York St", "city": "New Haven", "zip": "06504", "lat": 41.30439, "long": -72.934555 }, "geometry": { "type": "Point", "coordinates": [ -72.934555, 41.30439 ] } },
{ "type": "Feature", "properties": { "hospital_pk": "070005", "hospital_name": "Waterbury Hospital", "address": "64 Robbins St", "city": "Waterbury", "zip": "06721", "lat": 41.558502, "long": -73.05799 }, "geometry": { "type": "Point", "coordinates": [ -73.05799, 41.558502 ] } },
{ "type": "Feature", "properties": { "hospital_pk": "070016", "hospital_name": "Saint Mary's Hospital", "address": "56 Franklin Street", "city": "Waterbury", "zip": "06706", "lat": 41.55295925, "long": -73.036811657561998 }, "geometry": { "type": "Point", "coordinates": [ -73.036811657561998, 41.55295925 ] } },
{ "type": "Feature", "properties": { "hospital_pk": "070017", "hospital_name": "Midstate Medical Center", "address": "435 Lewis Avenue", "city": "Meriden", "zip": "06450", "lat": 41.550213, "long": -72.80375 }, "geometry": { "type": "Point", "coordinates": [ -72.80375, 41.550213 ] } },
{ "type": "Feature", "properties": { "hospital_pk": "070038", "hospital_name": "Connecticut Hospice Inc,The", "address": "100 Double Beach Road", "city": "Branford", "zip": "06405", "lat": 41.25923, "long": -72.83413 }, "geometry": { "type": "Point", "coordinates": [ -72.83413, 41.25923 ] } },
{ "type": "Feature", "properties": { "hospital_pk": "072003", "hospital_name": "Gaylord Hospital Inc", "address": "Gaylord Farm Rd", "city": "Wallingford", "zip": "06492", "lat": 41.4745322, "long": -72.8591331 }, "geometry": { "type": "Point", "coordinates": [ -72.8591331, 41.4745322 ] } },
{ "type": "Feature", "properties": { "hospital_pk": "070031", "hospital_name": "Griffin Hospital", "address": "130 Division St", "city": "Derby", "zip": "06418", "lat": 41.3352999, "long": -73.0894135 }, "geometry": { "type": "Point", "coordinates": [ -73.0894135, 41.3352999 ] } },
{ "type": "Feature", "properties": { "hospital_pk": "310012", "hospital_name": "Valley Hospital", "address": "223 N Van Dien Avenue", "city": "Ridgewood", "zip": "07450", "lat": 40.9834517, "long": -74.1007561 }, "geometry": { "type": "Point", "coordinates": [ -74.1007561, 40.9834517 ] } },
{ "type": "Feature", "properties": { "hospital_pk": "310130", "hospital_name": "Pascack Valley Medical Center, Hackensack Meridian", "address": "250 Old Hook Road", "city": "Westwood", "zip": "07675", "lat": 40.98378, "long": -74.015045 }, "geometry": { "type": "Point", "coordinates": [ -74.015045, 40.98378 ] } },
{ "type": "Feature", "properties": { "hospital_pk": "310058", "hospital_name": "Bergen New Bridge Medical Center", "address": "230 East Ridgewood Ave", "city": "Paramus", "zip": "07652", "lat": 40.9696063, "long": -74.0808183 }, "geometry": { "type": "Point", "coordinates": [ -74.0808183, 40.9696063 ] } },
{ "type": "Feature", "properties": { "hospital_pk": "312019", "hospital_name": "Select Specialty Hospital Northeast", "address": "96 Parkway", "city": "Rochelle Park", "zip": "07662", "lat": 40.897957, "long": -74.075935 }, "geometry": { "type": "Point", "coordinates": [ -74.075935, 40.897957 ] } },
{ "type": "Feature", "properties": { "hospital_pk": "310045", "hospital_name": "Englewood Hospital And Medical Center", "address": "350 Engle St", "city": "Englewood", "zip": "07631", "lat": 40.90404855, "long": -73.96862953825817 }, "geometry": { "type": "Point", "coordinates": [ -73.96862953825817, 40.90404855 ] } },
{ "type": "Feature", "properties": { "hospital_pk": "310008", "hospital_name": "Holy Name Medical Center", "address": "718 Teaneck Rd", "city": "Teaneck", "zip": "07666", "lat": 40.881557, "long": -74.009125 }, "geometry": { "type": "Point", "coordinates": [ -74.009125, 40.881557 ] } },
{ "type": "Feature", "properties": { "hospital_pk": "310001", "hospital_name": "Hackensack University Medical Center", "address": "30 Prospect Ave", "city": "Hackensack", "zip": "07601", "lat": 40.88453, "long": -74.05768 }, "geometry": { "type": "Point", "coordinates": [ -74.05768, 40.88453 ] } },
{ "type": "Feature", "properties": { "hospital_pk": "310009", "hospital_name": "Clara Maass Medical Center", "address": "One Clara Maass Drive", "city": "Belleville", "zip": "07109", "lat": 40.7846976, "long": -74.1755983 }, "geometry": { "type": "Point", "coordinates": [ -74.1755983, 40.7846976 ] } },
{ "type": "Feature", "properties": { "hospital_pk": "310002", "hospital_name": "Newark Beth Israel Medical Center", "address": "201 Lyons Ave", "city": "Newark", "zip": "07112", "lat": 40.710155, "long": -74.21385 }, "geometry": { "type": "Point", "coordinates": [ -74.21385, 40.710155 ] } },
{ "type": "Feature", "properties": { "hospital_pk": "310083", "hospital_name": "East Orange General Hospital", "address": "300 Central Ave", "city": "East Orange", "zip": "07018", "lat": 40.75421325, "long": -74.213409097458168 }, "geometry": { "type": "Point", "coordinates": [ -74.213409097458168, 40.75421325 ] } },
{ "type": "Feature", "properties": { "hospital_pk": "310119", "hospital_name": "University Hospital", "address": "150 Bergen St", "city": "Newark", "zip": "07101", "lat": 40.73981, "long": -74.19274 }, "geometry": { "type": "Point", "coordinates": [ -74.19274, 40.73981 ] } },
{ "type": "Feature", "properties": { "hospital_pk": "312024", "hospital_name": "Columbus Hospital Ltach", "address": "495 North 13th Street", "city": "Newark", "zip": "07107", "lat": 40.77297, "long": -74.187004 }, "geometry": { "type": "Point", "coordinates": [ -74.187004, 40.77297 ] } },
{ "type": "Feature", "properties": { "hospital_pk": "310096", "hospital_name": "Saint Michael's Medical Center", "address": "111 Central Avenue", "city": "Newark", "zip": "07102", "lat": 40.742786, "long": -74.17354 }, "geometry": { "type": "Point", "coordinates": [ -74.17354, 40.742786 ] } },
{ "type": "Feature", "properties": { "hospital_pk": "310076", "hospital_name": "Saint Barnabas Medical Center", "address": "94 Old Short Hills Road", "city": "Livingston", "zip": "07039", "lat": 40.765194, "long": -74.301834 }, "geometry": { "type": "Point", "coordinates": [ -74.301834, 40.765194 ] } },
{ "type": "Feature", "properties": { "hospital_pk": "310054", "hospital_name": "Hackensack Meridian Health, Mountainside Medical", "address": "1 Bay Avenue", "city": "Montclair", "zip": "07042", "lat": 40.81122045, "long": -74.204033748381008 }, "geometry": { "type": "Point", "coordinates": [ -74.204033748381008, 40.81122045 ] } },
{ "type": "Feature", "properties": { "hospital_pk": "310025", "hospital_name": "Carepoint Health - Bayonne Medical Center", "address": "29 East 29th St", "city": "Bayonne", "zip": "07002", "lat": 40.668026, "long": -74.11333 }, "geometry": { "type": "Point", "coordinates": [ -74.11333, 40.668026 ] } },
{ "type": "Feature", "properties": { "hospital_pk": "310074", "hospital_name": "Jersey City Medical Center", "address": "355 Grand Street", "city": "Jersey City", "zip": "07302", "lat": 40.716785, "long": -74.05098 }, "geometry": { "type": "Point", "coordinates": [ -74.05098, 40.716785 ] } },
{ "type": "Feature", "properties": { "hospital_pk": "310118", "hospital_name": "Hudson Regional Hospital", "address": "55 Meadowlands Pkwy", "city": "Secaucus", "zip": "07094", "lat": 40.794937, "long": -74.069115 }, "geometry": { "type": "Point", "coordinates": [ -74.069115, 40.794937 ] } },
{ "type": "Feature", "properties": { "hospital_pk": "310003", "hospital_name": "Palisades Medical Center", "address": "7600 River Rd", "city": "North Bergen", "zip": "07047", "lat": 40.796547, "long": -73.996506 }, "geometry": { "type": "Point", "coordinates": [ -73.996506, 40.796547 ] } },
{ "type": "Feature", "properties": { "hospital_pk": "310040", "hospital_name": "Carepoint Health-Hoboken University Medical Center", "address": "308 Willow Ave", "city": "Hoboken", "zip": "07030", "lat": 40.740795, "long": -74.03368 }, "geometry": { "type": "Point", "coordinates": [ -74.03368, 40.740795 ] } },
{ "type": "Feature", "properties": { "hospital_pk": "310016", "hospital_name": "Carepoint Health-Christ Hospital", "address": "176 Palisade Ave", "city": "Jersey City", "zip": "07306", "lat": 40.73452, "long": -74.05039 }, "geometry": { "type": "Point", "coordinates": [ -74.05039, 40.73452 ] } },
{ "type": "Feature", "properties": { "hospital_pk": "310050", "hospital_name": "Saint Clare's Hospital\/ Denville Campus", "address": "25 Pocono Road", "city": "Denville", "zip": "07834", "lat": 40.894352, "long": -74.46398 }, "geometry": { "type": "Point", "coordinates": [ -74.46398, 40.894352 ] } },
{ "type": "Feature", "properties": { "hospital_pk": "310017", "hospital_name": "Chilton Medical Center", "address": "97 West Parkway", "city": "Pompton Plains", "zip": "07444", "lat": 40.958096, "long": -74.30765 }, "geometry": { "type": "Point", "coordinates": [ -74.30765, 40.958096 ] } },
{ "type": "Feature", "properties": { "hospital_pk": "310015", "hospital_name": "Morristown Medical Center", "address": "100 Madison Ave", "city": "Morristown", "zip": "07960", "lat": 40.789571, "long": -74.465684577089348 }, "geometry": { "type": "Point", "coordinates": [ -74.465684577089348, 40.789571 ] } },
{ "type": "Feature", "properties": { "hospital_pk": "312020", "hospital_name": "Kindred Hospital New Jersey - Morris County", "address": "400 West Blackwell Street", "city": "Dover", "zip": "07801", "lat": 40.884636, "long": -74.54093 }, "geometry": { "type": "Point", "coordinates": [ -74.54093, 40.884636 ] } },
{ "type": "Feature", "properties": { "hospital_pk": "310006", "hospital_name": "St Mary's General Hospital", "address": "350 Boulevard", "city": "Passaic", "zip": "07055", "lat": 40.859295, "long": -74.139015 }, "geometry": { "type": "Point", "coordinates": [ -74.139015, 40.859295 ] } },
{ "type": "Feature", "properties": { "hospital_pk": "310019", "hospital_name": "St Joseph's University Medical Center", "address": "703 Main St", "city": "Paterson", "zip": "07503", "lat": 40.902527, "long": -74.166824 }, "geometry": { "type": "Point", "coordinates": [ -74.166824, 40.902527 ] } },
{ "type": "Feature", "properties": { "hospital_pk": "310028", "hospital_name": "Newton Medical Center", "address": "175 High St", "city": "Newton", "zip": "07860", "lat": 41.05698, "long": -74.76031 }, "geometry": { "type": "Point", "coordinates": [ -74.76031, 41.05698 ] } },
{ "type": "Feature", "properties": { "hospital_pk": "330023", "hospital_name": "Vassar Brothers Medical Center", "address": "45 Reade Place", "city": "Poughkeepsie", "zip": "12601", "lat": 41.694508, "long": -73.93533 }, "geometry": { "type": "Point", "coordinates": [ -73.93533, 41.694508 ] } },
{ "type": "Feature", "properties": { "hospital_pk": "330049", "hospital_name": "Northern Dutchess Hospital", "address": "6511 Springbrook Avenue", "city": "Rhinebeck", "zip": "12572", "lat": 41.93402, "long": -73.91251 }, "geometry": { "type": "Point", "coordinates": [ -73.91251, 41.93402 ] } },
{ "type": "Feature", "properties": { "hospital_pk": "330205", "hospital_name": "St Anthony Community Hospital", "address": "15 Maple Avenue -19", "city": "Warwick", "zip": "10990", "lat": 41.26269, "long": -74.35644 }, "geometry": { "type": "Point", "coordinates": [ -74.35644, 41.26269 ] } },
{ "type": "Feature", "properties": { "hospital_pk": "330264", "hospital_name": "St Luke's Cornwall Hospital", "address": "70 Dubois Street", "city": "Newburgh", "zip": "12550", "lat": 41.503475, "long": -74.015175 }, "geometry": { "type": "Point", "coordinates": [ -74.015175, 41.503475 ] } },
{ "type": "Feature", "properties": { "hospital_pk": "330126", "hospital_name": "Garnet Health Medical Center", "address": "707 East Main Street", "city": "Middletown", "zip": "10940", "lat": 41.439877, "long": -74.3682 }, "geometry": { "type": "Point", "coordinates": [ -74.3682, 41.439877 ] } },
{ "type": "Feature", "properties": { "hospital_pk": "330135", "hospital_name": "Bon Secours Community Hospital", "address": "160 East Main Street", "city": "Port Jervis", "zip": "12771", "lat": 41.36734935, "long": -74.680942646224366 }, "geometry": { "type": "Point", "coordinates": [ -74.680942646224366, 41.36734935 ] } },
{ "type": "Feature", "properties": { "hospital_pk": "330273", "hospital_name": "Putnam Hospital Center", "address": "670 Stoneleigh Avenue", "city": "Carmel", "zip": "10512", "lat": 41.387836, "long": -73.663765 }, "geometry": { "type": "Point", "coordinates": [ -73.663765, 41.387836 ] } },
{ "type": "Feature", "properties": { "hospital_pk": "330104", "hospital_name": "Nyack Hospital", "address": "160 North Midland Avenue", "city": "Nyack", "zip": "10960", "lat": 41.0959963, "long": -73.9262204 }, "geometry": { "type": "Point", "coordinates": [ -73.9262204, 41.0959963 ] } },
{ "type": "Feature", "properties": { "hospital_pk": "330158", "hospital_name": "Good Samaritan Hospital Of Suffern", "address": "255 Lafayette Avenue", "city": "Suffern", "zip": "10901", "lat": 41.11084915, "long": -74.134449292066392 }, "geometry": { "type": "Point", "coordinates": [ -74.134449292066392, 41.11084915 ] } },
{ "type": "Feature", "properties": { "hospital_pk": "330405", "hospital_name": "Helen Hayes Hospital", "address": "51 North Route 9w", "city": "West Haverstraw", "zip": "10993", "lat": 41.21217, "long": -73.982185 }, "geometry": { "type": "Point", "coordinates": [ -73.982185, 41.21217 ] } },
{ "type": "Feature", "properties": { "hospital_pk": "330224", "hospital_name": "Healthalliance Hospital Mary's Avenue Campus", "address": "105 Mary's Avenue", "city": "Kingston", "zip": "12401", "lat": 41.922573, "long": -73.99949 }, "geometry": { "type": "Point", "coordinates": [ -73.99949, 41.922573 ] } },
{ "type": "Feature", "properties": { "hospital_pk": "330004", "hospital_name": "Healthalliance Hospital Broadway Campus", "address": "396 Broadway", "city": "Kingston", "zip": "12401", "lat": 41.92723455, "long": -73.994801373538991 }, "geometry": { "type": "Point", "coordinates": [ -73.994801373538991, 41.92723455 ] } },
{ "type": "Feature", "properties": { "hospital_pk": "331310", "hospital_name": "Ellenville Regional Hospital", "address": "10 Healthy Way", "city": "Ellenville", "zip": "12428", "lat": 41.73366, "long": -74.38095 }, "geometry": { "type": "Point", "coordinates": [ -74.38095, 41.73366 ] } },
{ "type": "Feature", "properties": { "hospital_pk": "330234", "hospital_name": "Westchester Medical Center", "address": "100 Woods Rd", "city": "Valhalla", "zip": "10595", "lat": 41.087883, "long": -73.80399 }, "geometry": { "type": "Point", "coordinates": [ -73.80399, 41.087883 ] } },
{ "type": "Feature", "properties": { "hospital_pk": "330261", "hospital_name": "Phelps Hospital", "address": "701 N Broadway", "city": "Sleepy Hollow", "zip": "10591", "lat": 41.052982, "long": -73.860886 }, "geometry": { "type": "Point", "coordinates": [ -73.860886, 41.052982 ] } },
{ "type": "Feature", "properties": { "hospital_pk": "330267", "hospital_name": "Hudson Valley Hospital Center", "address": "1980 Crompond Road", "city": "Cortlandt Manor", "zip": "10567", "lat": 41.291386, "long": -73.89187 }, "geometry": { "type": "Point", "coordinates": [ -73.89187, 41.291386 ] } },
{ "type": "Feature", "properties": { "hospital_pk": "330006", "hospital_name": "St Joseph's Medical Center", "address": "127 South Broadway", "city": "Yonkers", "zip": "10701", "lat": 40.930096, "long": -73.897545 }, "geometry": { "type": "Point", "coordinates": [ -73.897545, 40.930096 ] } },
{ "type": "Feature", "properties": { "hospital_pk": "330086", "hospital_name": "Montefiore Mount Vernon Hospital", "address": "12 North 7th Avenue", "city": "Mount Vernon", "zip": "10550", "lat": 40.91293, "long": -73.84006 }, "geometry": { "type": "Point", "coordinates": [ -73.84006, 40.91293 ] } },
{ "type": "Feature", "properties": { "hospital_pk": "330162", "hospital_name": "Northern Westchester Hospital", "address": "400 East Main Street", "city": "Mount Kisco", "zip": "10549", "lat": 41.208366, "long": -73.74018 }, "geometry": { "type": "Point", "coordinates": [ -73.74018, 41.208366 ] } },
{ "type": "Feature", "properties": { "hospital_pk": "330184", "hospital_name": "Montefiore New Rochelle Hospital", "address": "16 Guion Place", "city": "New Rochelle", "zip": "10802", "lat": 40.913013, "long": -73.787056 }, "geometry": { "type": "Point", "coordinates": [ -73.787056, 40.913013 ] } },
{ "type": "Feature", "properties": { "hospital_pk": "330208", "hospital_name": "St John's Riverside Hospital", "address": "976 North Broadway", "city": "Yonkers", "zip": "10701", "lat": 40.967857, "long": -73.88508 }, "geometry": { "type": "Point", "coordinates": [ -73.88508, 40.967857 ] } },
{ "type": "Feature", "properties": { "hospital_pk": "330304", "hospital_name": "White Plains Hospital Center", "address": "41 East Post R0ad", "city": "White Plains", "zip": "10601", "lat": 41.026123, "long": -73.77007 }, "geometry": { "type": "Point", "coordinates": [ -73.77007, 41.026123 ] } }
]
}
